{
    "type": "FeatureCollection",
    "features": [
        {
            "type": "Feature",
            "properties": {},
            "geometry": {
                "type": "LineString",
                "coordinates": [
                    [
                        39.40404,
                        57.182183
                    ],
                    [
                        39.363187,
                        57.171865
                    ],
                    [
                        39.360891,
                        57.17091
                    ],
                    [
                        39.3578,
                        57.16867
                    ],
                    [
                        39.357436,
                        57.167885
                    ],
                    [
                        39.352426,
                        57.161022
                    ],
                    [
                        39.350545,
                        57.15671
                    ],
                    [
                        39.339688,
                        57.145477
                    ],
                    [
                        39.336678,
                        57.138062
                    ],
                    [
                        39.331252,
                        57.130813
                    ],
                    [
                        39.32548,
                        57.126494
                    ],
                    [
                        39.322148,
                        57.122972
                    ],
                    [
                        39.316605,
                        57.109479
                    ],
                    [
                        39.316724,
                        57.102869
                    ],
                    [
                        39.307142,
                        57.072788
                    ],
                    [
                        39.304501,
                        57.070187
                    ],
                    [
                        39.305363,
                        57.066842
                    ],
                    [
                        39.304698,
                        57.063746
                    ],
                    [
                        39.30373,
                        57.061645
                    ],
                    [
                        39.289238,
                        57.041942
                    ],
                    [
                        39.282546,
                        57.03064
                    ],
                    [
                        39.264687,
                        57.014319
                    ],
                    [
                        39.25567,
                        57.006087
                    ],
                    [
                        39.241687,
                        56.998111
                    ],
                    [
                        39.229693,
                        56.990609
                    ],
                    [
                        39.227434,
                        56.988411
                    ],
                    [
                        39.071478,
                        56.870256
                    ],
                    [
                        39.067256,
                        56.869164
                    ],
                    [
                        38.968982,
                        56.870051
                    ],
                    [
                        38.965648,
                        56.869191
                    ],
                    [
                        38.938227,
                        56.854169
                    ],
                    [
                        38.906082,
                        56.821645
                    ],
                    [
                        38.882215,
                        56.78201
                    ],
                    [
                        38.873452,
                        56.767346
                    ],
                    [
                        38.872797,
                        56.765156
                    ],
                    [
                        38.857786,
                        56.745218
                    ],
                    [
                        38.856209,
                        56.738759
                    ],
                    [
                        38.852547,
                        56.734899
                    ],
                    [
                        38.847006,
                        56.730647
                    ],
                    [
                        38.845702,
                        56.729383
                    ],
                    [
                        38.841712,
                        56.72701
                    ],
                    [
                        38.818347,
                        56.714167
                    ],
                    [
                        38.787825,
                        56.702967
                    ],
                    [
                        38.746726,
                        56.687882
                    ],
                    [
                        38.700167,
                        56.654819
                    ],
                    [
                        38.698665,
                        56.652093
                    ],
                    [
                        38.638852,
                        56.608241
                    ],
                    [
                        38.630797,
                        56.603878
                    ],
                    [
                        38.628959,
                        56.601995
                    ],
                    [
                        38.593227,
                        56.571671
                    ],
                    [
                        38.591527,
                        56.569893
                    ],
                    [
                        38.582258,
                        56.562877
                    ]
                ]
            },
            "bbox": [
                38.582258,
                56.562877,
                39.40404,
                57.182183
            ]
        }
    ]
}